[
    {
        "Altitude(m)": 703251.1335794542,
        "Argument of Periapsis(deg)": 0.0,
        "Eccentricity": 0.0,
        "Inclination(deg)": 45.0,
        "Latitude(deg)": 22.545780216041248,
        "Longitude(deg)": -135.58085624016732,
        "Mean Anomaly(deg)": 32.72730000000001,
        "RAAN(deg)": 300.0,
        "Satellite Name": "Constellation 1 1322",
        "Satellite Number": 1322,
        "Semi-Major Axis(m)": 7083131.272910544,
        "Time(s)": 0
    },
    {
        "Altitude(m)": 703255.2613195557,
        "Argument of Periapsis(deg)": 5.994800624540561e-05,
        "Eccentricity": 0.0,
        "Inclination(deg)": 45.0,
        "Latitude(deg)": 22.58509132613822,
        "Longitude(deg)": -135.53473656793608,
        "Mean Anomaly(deg)": 32.7880011402499,
        "RAAN(deg)": 299.9999434108345,
        "Satellite Name": "Constellation 1 1322",
        "Satellite Number": 1322,
        "Semi-Major Axis(m)": 7083131.272910544,
        "Time(s)": 1
    },
    {
        "Altitude(m)": 703259.4008302953,
        "Argument of Periapsis(deg)": 0.00011989601249081122,
        "Eccentricity": 0.0,
        "Inclination(deg)": 45.0,
        "Latitude(deg)": 22.624386548258578,
        "Longitude(deg)": -135.48858839085185,
        "Mean Anomaly(deg)": 32.848702280499836,
        "RAAN(deg)": 299.9998868216689,
        "Satellite Name": "Constellation 1 1322",
        "Satellite Number": 1322,
        "Semi-Major Axis(m)": 7083131.272910544,
        "Time(s)": 2
    },
    {
        "Altitude(m)": 703263.552076995,
        "Argument of Periapsis(deg)": 0.00017984401873621686,
        "Eccentricity": 0.0,
        "Inclination(deg)": 45.0,
        "Latitude(deg)": 22.663665842997897,
        "Longitude(deg)": -135.44241164912947,
        "Mean Anomaly(deg)": 32.90940342074972,
        "RAAN(deg)": 299.99983023250326,
        "Satellite Name": "Constellation 1 1322",
        "Satellite Number": 1322,
        "Semi-Major Axis(m)": 7083131.272910544,
        "Time(s)": 3
    },
    {
        "Altitude(m)": 703267.7150249284,
        "Argument of Periapsis(deg)": 0.00023979202498162244,
        "Eccentricity": 0.0,
        "Inclination(deg)": 45.0,
        "Latitude(deg)": 22.702929170895544,
        "Longitude(deg)": -135.3962062829637,
        "Mean Anomaly(deg)": 32.97010456099961,
        "RAAN(deg)": 299.99977364333773,
        "Satellite Name": "Constellation 1 1322",
        "Satellite Number": 1322,
        "Semi-Major Axis(m)": 7083131.272910544,
        "Time(s)": 4
    },
    {
        "Altitude(m)": 703271.8896393284,
        "Argument of Periapsis(deg)": 0.00029974003122702807,
        "Eccentricity": 0.0,
        "Inclination(deg)": 45.0,
        "Latitude(deg)": 22.74217649243445,
        "Longitude(deg)": -135.34997223252975,
        "Mean Anomaly(deg)": 33.03080570124949,
        "RAAN(deg)": 299.99971705417215,
        "Satellite Name": "Constellation 1 1322",
        "Satellite Number": 1322,
        "Semi-Major Axis(m)": 7083131.272910544,
        "Time(s)": 5
    },
    {
        "Altitude(m)": 703276.0758853959,
        "Argument of Periapsis(deg)": 0.00035968803747243373,
        "Eccentricity": 0.0,
        "Inclination(deg)": 45.0,
        "Latitude(deg)": 22.781407768041053,
        "Longitude(deg)": -135.3037094379832,
        "Mean Anomaly(deg)": 33.09150684149943,
        "RAAN(deg)": 299.9996604650066,
        "Satellite Name": "Constellation 1 1322",
        "Satellite Number": 1322,
        "Semi-Major Axis(m)": 7083131.272910544,
        "Time(s)": 6
    },
    {
        "Altitude(m)": 703280.273728277,
        "Argument of Periapsis(deg)": 0.00041963604371783933,
        "Eccentricity": 0.0,
        "Inclination(deg)": 45.0,
        "Latitude(deg)": 22.82062295808546,
        "Longitude(deg)": -135.25741800755736,
        "Mean Anomaly(deg)": 33.152207981749314,
        "RAAN(deg)": 299.99960387584105,
        "Satellite Name": "Constellation 1 1322",
        "Satellite Number": 1322,
        "Semi-Major Axis(m)": 7083131.272910544,
        "Time(s)": 7
    },
    {
        "Altitude(m)": 703284.4831330852,
        "Argument of Periapsis(deg)": 0.0004795840499632449,
        "Eccentricity": 0.0,
        "Inclination(deg)": 45.0,
        "Latitude(deg)": 22.859822022880277,
        "Longitude(deg)": -135.21109754517553,
        "Mean Anomaly(deg)": 33.2129091219992,
        "RAAN(deg)": 299.9995472866754,
        "Satellite Name": "Constellation 1 1322",
        "Satellite Number": 1322,
        "Semi-Major Axis(m)": 7083131.272910544,
        "Time(s)": 8
    },
    {
        "Altitude(m)": 703288.7040648921,
        "Argument of Periapsis(deg)": 0.0005395320562086505,
        "Eccentricity": 0.0,
        "Inclination(deg)": 45.0,
        "Latitude(deg)": 22.899004922682,
        "Longitude(deg)": -135.16474815903285,
        "Mean Anomaly(deg)": 33.27361026224904,
        "RAAN(deg)": 299.9994906975099,
        "Satellite Name": "Constellation 1 1322",
        "Satellite Number": 1322,
        "Semi-Major Axis(m)": 7083131.272910544,
        "Time(s)": 9
    },
    {
        "Altitude(m)": 703292.9364887301,
        "Argument of Periapsis(deg)": 0.0005994800624540561,
        "Eccentricity": 0.0,
        "Inclination(deg)": 45.0,
        "Latitude(deg)": 22.93817161769005,
        "Longitude(deg)": -135.11836978920854,
        "Mean Anomaly(deg)": 33.33431140249903,
        "RAAN(deg)": 299.9994341083443,
        "Satellite Name": "Constellation 1 1322",
        "Satellite Number": 1322,
        "Semi-Major Axis(m)": 7083131.272910544,
        "Time(s)": 10
    },
    {
        "Altitude(m)": 703297.1803695835,
        "Argument of Periapsis(deg)": 0.0006594280686994618,
        "Eccentricity": 0.0,
        "Inclination(deg)": 45.0,
        "Latitude(deg)": 22.977322068046544,
        "Longitude(deg)": -135.07196237576375,
        "Mean Anomaly(deg)": 33.39501254274886,
        "RAAN(deg)": 299.9993775191788,
        "Satellite Name": "Constellation 1 1322",
        "Satellite Number": 1322,
        "Semi-Major Axis(m)": 7083131.272910544,
        "Time(s)": 11
    },
    {
        "Altitude(m)": 703301.4356724076,
        "Argument of Periapsis(deg)": 0.0007193760749448675,
        "Eccentricity": 0.0,
        "Inclination(deg)": 45.0,
        "Latitude(deg)": 23.016456233836696,
        "Longitude(deg)": -135.02552585874068,
        "Mean Anomaly(deg)": 33.45571368299875,
        "RAAN(deg)": 299.9993209300132,
        "Satellite Name": "Constellation 1 1322",
        "Satellite Number": 1322,
        "Semi-Major Axis(m)": 7083131.272910544,
        "Time(s)": 12
    },
    {
        "Altitude(m)": 703305.7023621054,
        "Argument of Periapsis(deg)": 0.000779324081190273,
        "Eccentricity": 0.0,
        "Inclination(deg)": 45.0,
        "Latitude(deg)": 23.055574075088252,
        "Longitude(deg)": -134.97906017816365,
        "Mean Anomaly(deg)": 33.51641482324869,
        "RAAN(deg)": 299.9992643408476,
        "Satellite Name": "Constellation 1 1322",
        "Satellite Number": 1322,
        "Semi-Major Axis(m)": 7083131.272910544,
        "Time(s)": 13
    },
    {
        "Altitude(m)": 703309.9804035529,
        "Argument of Periapsis(deg)": 0.0008392720874356787,
        "Eccentricity": 0.0,
        "Inclination(deg)": 45.0,
        "Latitude(deg)": 23.094675551771644,
        "Longitude(deg)": -134.93256527403878,
        "Mean Anomaly(deg)": 33.57711596349858,
        "RAAN(deg)": 299.99920775168204,
        "Satellite Name": "Constellation 1 1322",
        "Satellite Number": 1322,
        "Semi-Major Axis(m)": 7083131.272910544,
        "Time(s)": 14
    },
    {
        "Altitude(m)": 703314.2697615747,
        "Argument of Periapsis(deg)": 0.0008992200936810842,
        "Eccentricity": 0.0,
        "Inclination(deg)": 45.0,
        "Latitude(deg)": 23.133760623799997,
        "Longitude(deg)": -134.88604125445133,
        "Mean Anomaly(deg)": 33.63781710374846,
        "RAAN(deg)": 299.99915116251645,
        "Satellite Name": "Constellation 1 1322",
        "Satellite Number": 1322,
        "Semi-Major Axis(m)": 7083131.272910544,
        "Time(s)": 15
    },
    {
        "Altitude(m)": 703318.5704009628,
        "Argument of Periapsis(deg)": 0.0009591680999264898,
        "Eccentricity": 0.0,
        "Inclination(deg)": 45.0,
        "Latitude(deg)": 23.172829251028126,
        "Longitude(deg)": -134.83948772317814,
        "Mean Anomaly(deg)": 33.69851824399835,
        "RAAN(deg)": 299.99909457335093,
        "Satellite Name": "Constellation 1 1322",
        "Satellite Number": 1322,
        "Semi-Major Axis(m)": 7083131.272910544,
        "Time(s)": 16
    },
    {
        "Altitude(m)": 703322.8822864637,
        "Argument of Periapsis(deg)": 0.0010191161061718953,
        "Eccentricity": 0.0,
        "Inclination(deg)": 45.0,
        "Latitude(deg)": 23.211881393253826,
        "Longitude(deg)": -134.79290478826942,
        "Mean Anomaly(deg)": 33.75921938424829,
        "RAAN(deg)": 299.99903798418535,
        "Satellite Name": "Constellation 1 1322",
        "Satellite Number": 1322,
        "Semi-Major Axis(m)": 7083131.272910544,
        "Time(s)": 17
    },
    {
        "Altitude(m)": 703327.2053827888,
        "Argument of Periapsis(deg)": 0.001079064112417301,
        "Eccentricity": 0.0,
        "Inclination(deg)": 45.0,
        "Latitude(deg)": 23.25091701021679,
        "Longitude(deg)": -134.74629238966122,
        "Mean Anomaly(deg)": 33.81992052449817,
        "RAAN(deg)": 299.99898139501977,
        "Satellite Name": "Constellation 1 1322",
        "Satellite Number": 1322,
        "Semi-Major Axis(m)": 7083131.272910544,
        "Time(s)": 18
    }
]